[{"OBJECT_NAME":"STARLINK-36499","OBJECT_ID":"2026-003AB","EPOCH":"2026-03-09T10:59:54.273120","MEAN_MOTION":15.27616462,"ECCENTRICITY":0.00019271,"INCLINATION":42.9994,"RA_OF_ASC_NODE":228.7861,"ARG_OF_PERICENTER":278.624,"MEAN_ANOMALY":81.4393,"EPHEMERIS_TYPE":0,"CLASSIFICATION_TYPE":"U","NORAD_CAT_ID":67359,"ELEMENT_SET_NO":999,"REV_AT_EPOCH":878,"BSTAR":0.0009206871,"MEAN_MOTION_DOT":0.00025188,"MEAN_MOTION_DDOT":0},{"OBJECT_NAME":"COSMOS 2251 DEB","OBJECT_ID":"1993-036BXP","EPOCH":"2026-03-04T07:23:49.847712","MEAN_MOTION":15.24789556,"ECCENTRICITY":0.00190834,"INCLINATION":73.9759,"RA_OF_ASC_NODE":64.3004,"ARG_OF_PERICENTER":239.4537,"MEAN_ANOMALY":120.4779,"EPHEMERIS_TYPE":0,"CLASSIFICATION_TYPE":"U","NORAD_CAT_ID":47059,"ELEMENT_SET_NO":999,"REV_AT_EPOCH":9543,"BSTAR":0.0048704033,"MEAN_MOTION_DOT":0.00123422,"MEAN_MOTION_DDOT":0}]
